[{"OBJECT_NAME":"DONGPO 08","OBJECT_ID":"2022-167E","EPOCH":"2026-03-09T22:57:52.742880","MEAN_MOTION":15.31542505,"ECCENTRICITY":0.00092155,"INCLINATION":97.6764,"RA_OF_ASC_NODE":233.3854,"ARG_OF_PERICENTER":153.9158,"MEAN_ANOMALY":206.2548,"EPHEMERIS_TYPE":0,"CLASSIFICATION_TYPE":"U","NORAD_CAT_ID":54686,"ELEMENT_SET_NO":999,"REV_AT_EPOCH":18012,"BSTAR":0.0004734784,"MEAN_MOTION_DOT":0.0001437,"MEAN_MOTION_DDOT":0},{"OBJECT_NAME":"STARLINK-35761","OBJECT_ID":"2025-288C","EPOCH":"2026-03-09T05:51:01.985472","MEAN_MOTION":15.27587608,"ECCENTRICITY":0.00011159,"INCLINATION":43.0012,"RA_OF_ASC_NODE":25.5874,"ARG_OF_PERICENTER":282.5954,"MEAN_ANOMALY":77.4773,"EPHEMERIS_TYPE":0,"CLASSIFICATION_TYPE":"U","NORAD_CAT_ID":66961,"ELEMENT_SET_NO":999,"REV_AT_EPOCH":1522,"BSTAR":0.0014731485,"MEAN_MOTION_DOT":0.00040508,"MEAN_MOTION_DDOT":0}]
